{"type": "FeatureCollection", "features": [ {"type": "Feature", "properties": {"norad_id": 41836, "name": "HIMAWARI-9", "group": "weather", "lat": 0.029819246696902876, "lon": 158.3134409531247, "alt_km": 35793.01476885797, "timestamp": "2025-12-24T18:55:55.698755+00:00", "meta": {"OBJECT_NAME": "HIMAWARI-9", "OBJECT_ID": "2016-064A", "EPOCH": "2025-12-23T22:52:38.784288", "MEAN_MOTION": 1.00271828, "ECCENTRICITY": 0.00016373, "INCLINATION": 0.0175, "RA_OF_ASC_NODE": 40.3208, "ARG_OF_PERICENTER": 292.8784, "MEAN_ANOMALY": 243.4785, "EPHEMERIS_TYPE": 0, "CLASSIFICATION_TYPE": "U", "NORAD_CAT_ID": 41836, "ELEMENT_SET_NO": 999, "REV_AT_EPOCH": 3345, "BSTAR": 0, "MEAN_MOTION_DOT": 0, "MEAN_MOTION_DDOT": 0}, "tle": {"line1": "1 41836U 16064A   25357.95322667  .00000000  00000+0  00000+0 0  9999", "line2": "2 41836   0.0175  40.3208 0001637 292.8784 243.4785  1.00271828 33458"}}, "geometry": {"type": "Point", "coordinates": [158.3134409531247, 0.029819246696902876]}}, {"type": "Feature", "properties": {"norad_id": 41866, "name": "GOES 16", "group": "weather", "lat": -0.009102321960210623, "lon": -87.12504157183149, "alt_km": 35772.841330859286, "timestamp": "2025-12-24T18:55:55.698774+00:00", "meta": {"OBJECT_NAME": "GOES 16", "OBJECT_ID": "2016-071A", "EPOCH": "2025-12-24T04:56:56.433408", "MEAN_MOTION": 1.00271814, "ECCENTRICITY": 0.00031453, "INCLINATION": 0.0748, "RA_OF_ASC_NODE": 102.0172, "ARG_OF_PERICENTER": 164.4838, "MEAN_ANOMALY": 156.055, "EPHEMERIS_TYPE": 0, "CLASSIFICATION_TYPE": "U", "NORAD_CAT_ID": 41866, "ELEMENT_SET_NO": 999, "REV_AT_EPOCH": 3334, "BSTAR": 0, "MEAN_MOTION_DOT": -7e-07, "MEAN_MOTION_DDOT": 0}, "tle": {"line1": "1 41866U 16071A   25358.20620872 -.00000070  00000+0  00000+0 0  9996", "line2": "2 41866   0.0748 102.0172 0003145 164.4838 156.0550  1.00271814 33345"}}, "geometry": {"type": "Point", "coordinates": [-87.12504157183149, -0.009102321960210623]}}, {"type": "Feature", "properties": {"norad_id": 41882, "name": "FENGYUN 4A", "group": "weather", "lat": 1.6241644384219873, "lon": 141.09261320618975, "alt_km": 35786.40804208778, "timestamp": "2025-12-24T18:55:55.698794+00:00", "meta": {"OBJECT_NAME": "FENGYUN 4A", "OBJECT_ID": "2016-077A", "EPOCH": "2025-12-24T06:50:26.113344", "MEAN_MOTION": 1.00263706, "ECCENTRICITY": 0.00044804, "INCLINATION": 1.8765, "RA_OF_ASC_NODE": 82.2781, "ARG_OF_PERICENTER": 143.0978, "MEAN_ANOMALY": 93.9313, "EPHEMERIS_TYPE": 0, "CLASSIFICATION_TYPE": "U", "NORAD_CAT_ID": 41882, "ELEMENT_SET_NO": 999, "REV_AT_EPOCH": 3317, "BSTAR": 0, "MEAN_MOTION_DOT": -3.37e-06, "MEAN_MOTION_DDOT": 0}, "tle": {"line1": "1 41882U 16077A   25358.28502446 -.00000337  00000+0  00000+0 0  9990", "line2": "2 41882   1.8765  82.2781 0004480 143.0978  93.9313  1.00263706 33175"}}, "geometry": {"type": "Point", "coordinates": [141.09261320618975, 1.6241644384219873]}}, {"type": "Feature", "properties": {"norad_id": 41884, "name": "CYGFM05", "group": "weather", "lat": -30.856139085705557, "lon": -90.3719036229576, "alt_km": 417.080888766317, "timestamp": "2025-12-24T18:55:55.698811+00:00", "meta": {"OBJECT_NAME": "CYGFM05", "OBJECT_ID": "2016-078A", "EPOCH": "2025-12-24T05:16:32.899872", "MEAN_MOTION": 15.48056923, "ECCENTRICITY": 0.00106253, "INCLINATION": 34.9606, "RA_OF_ASC_NODE": 332.1186, "ARG_OF_PERICENTER": 282.376, "MEAN_ANOMALY": 77.5773, "EPHEMERIS_TYPE": 0, "CLASSIFICATION_TYPE": "U", "NORAD_CAT_ID": 41884, "ELEMENT_SET_NO": 999, "REV_AT_EPOCH": 50154, "BSTAR": 0.00039063872, "MEAN_MOTION_DOT": 0.00021143, "MEAN_MOTION_DDOT": 0}, "tle": {"line1": "1 41884U 16078A   25358.21982523  .00021143  00000+0  39064-3 0  9997", "line2": "2 41884  34.9606 332.1186 0010625 282.3760  77.5773 15.48056923501545"}}, "geometry": {"type": "Point", "coordinates": [-90.3719036229576, -30.856139085705557]}}, {"type": "Feature", "properties": {"norad_id": 41885, "name": "CYGFM04", "group": "weather", "lat": -31.03561194624556, "lon": -116.71882488152734, "alt_km": 410.01904431538514, "timestamp": "2025-12-24T18:55:55.698828+00:00", "meta": {"OBJECT_NAME": "CYGFM04", "OBJECT_ID": "2016-078B", "EPOCH": "2025-12-24T03:45:30.157056", "MEAN_MOTION": 15.5083976, "ECCENTRICITY": 0.00092946, "INCLINATION": 34.9353, "RA_OF_ASC_NODE": 306.9755, "ARG_OF_PERICENTER": 306.3575, "MEAN_ANOMALY": 53.6289, "EPHEMERIS_TYPE": 0, "CLASSIFICATION_TYPE": "U", "NORAD_CAT_ID": 41885, "ELEMENT_SET_NO": 999, "REV_AT_EPOCH": 50171, "BSTAR": 0.00041478685, "MEAN_MOTION_DOT": 0.00024779, "MEAN_MOTION_DDOT": 0}, "tle": {"line1": "1 41885U 16078B   25358.15659904  .00024779  00000+0  41479-3 0  9996", "line2": "2 41885  34.9353 306.9755 0009294 306.3575  53.6289 15.50839760501714"}}, "geometry": {"type": "Point", "coordinates": [-116.71882488152734, -31.03561194624556]}}, {"type": "Feature", "properties": {"norad_id": 41886, "name": "CYGFM02", "group": "weather", "lat": 5.528465332885755, "lon": -51.039357176304, "alt_km": 404.06566172241855, "timestamp": "2025-12-24T18:55:55.698845+00:00", "meta": {"OBJECT_NAME": "CYGFM02", "OBJECT_ID": "2016-078C", "EPOCH": "2025-12-24T03:27:19.833120", "MEAN_MOTION": 15.52250586, "ECCENTRICITY": 0.00109047, "INCLINATION": 34.9441, "RA_OF_ASC_NODE": 305.2353, "ARG_OF_PERICENTER": 307.6197, "MEAN_ANOMALY": 52.3535, "EPHEMERIS_TYPE": 0, "CLASSIFICATION_TYPE": "U", "NORAD_CAT_ID": 41886, "ELEMENT_SET_NO": 999, "REV_AT_EPOCH": 50184, "BSTAR": 0.00039758477, "MEAN_MOTION_DOT": 0.00025004, "MEAN_MOTION_DDOT": 0}, "tle": {"line1": "1 41886U 16078C   25358.14397955  .00025004  00000+0  39758-3 0  9990", "line2": "2 41886  34.9441 305.2353 0010904 307.6197  52.3535 15.52250586501842"}}, "geometry": {"type": "Point", "coordinates": [-51.039357176304, 5.528465332885755]}}, {"type": "Feature", "properties": {"norad_id": 41887, "name": "CYGFM01", "group": "weather", "lat": 3.5898424757103995, "lon": -24.182179973719307, "alt_km": 418.5378998107899, "timestamp": "2025-12-24T18:55:55.698862+00:00", "meta": {"OBJECT_NAME": "CYGFM01", "OBJECT_ID": "2016-078D", "EPOCH": "2025-12-24T06:31:41.746080", "MEAN_MOTION": 15.48651052, "ECCENTRICITY": 0.00104085, "INCLINATION": 34.9436, "RA_OF_ASC_NODE": 334.0447, "ARG_OF_PERICENTER": 275.2665, "MEAN_ANOMALY": 84.6869, "EPHEMERIS_TYPE": 0, "CLASSIFICATION_TYPE": "U", "NORAD_CAT_ID": 41887, "ELEMENT_SET_NO": 999, "REV_AT_EPOCH": 50149, "BSTAR": 0.00040597241, "MEAN_MOTION_DOT": 0.00022441, "MEAN_MOTION_DDOT": 0}, "tle": {"line1": "1 41887U 16078D   25358.27201095  .00022441  00000+0  40597-3 0  9999", "line2": "2 41887  34.9436 334.0447 0010408 275.2665  84.6869 15.48651052501497"}}, "geometry": {"type": "Point", "coordinates": [-24.182179973719307, 3.5898424757103995]}}, {"type": "Feature", "properties": {"norad_id": 41888, "name": "CYGFM08", "group": "weather", "lat": 33.023245070541996, "lon": 64.95547412302457, "alt_km": 418.4279173933064, "timestamp": "2025-12-24T18:55:55.698880+00:00", "meta": {"OBJECT_NAME": "CYGFM08", "OBJECT_ID": "2016-078E", "EPOCH": "2025-12-24T06:06:07.479072", "MEAN_MOTION": 15.49887318, "ECCENTRICITY": 0.001161, "INCLINATION": 34.9466, "RA_OF_ASC_NODE": 317.0171, "ARG_OF_PERICENTER": 298.3091, "MEAN_ANOMALY": 61.646, "EPHEMERIS_TYPE": 0, "CLASSIFICATION_TYPE": "U", "NORAD_CAT_ID": 41888, "ELEMENT_SET_NO": 999, "REV_AT_EPOCH": 50172, "BSTAR": 0.00040991288, "MEAN_MOTION_DOT": 0.00023689, "MEAN_MOTION_DDOT": 0}, "tle": {"line1": "1 41888U 16078E   25358.25425323  .00023689  00000+0  40991-3 0  9993", "line2": "2 41888  34.9466 317.0171 0011610 298.3091  61.6460 15.49887318501726"}}, "geometry": {"type": "Point", "coordinates": [64.95547412302457, 33.023245070541996]}}, {"type": "Feature", "properties": {"norad_id": 41890, "name": "CYGFM07", "group": "weather", "lat": 29.330266939897555, "lon": 68.85744380611632, "alt_km": 415.9004374318283, "timestamp": "2025-12-24T18:55:55.698897+00:00", "meta": {"OBJECT_NAME": "CYGFM07", "OBJECT_ID": "2016-078G", "EPOCH": "2025-12-24T04:30:16.863552", "MEAN_MOTION": 15.50478038, "ECCENTRICITY": 0.00095557, "INCLINATION": 34.948, "RA_OF_ASC_NODE": 306.3693, "ARG_OF_PERICENTER": 312.2172, "MEAN_ANOMALY": 47.7739, "EPHEMERIS_TYPE": 0, "CLASSIFICATION_TYPE": "U", "NORAD_CAT_ID": 41890, "ELEMENT_SET_NO": 999, "REV_AT_EPOCH": 50173, "BSTAR": 0.00041713865, "MEAN_MOTION_DOT": 0.00024601, "MEAN_MOTION_DDOT": 0}, "tle": {"line1": "1 41890U 16078G   25358.18769518  .00024601  00000+0  41714-3 0  9994", "line2": "2 41890  34.9480 306.3693 0009555 312.2172  47.7739 15.50478038501738"}}, "geometry": {"type": "Point", "coordinates": [68.85744380611632, 29.330266939897555]}}, {"type": "Feature", "properties": {"norad_id": 41891, "name": "CYGFM03", "group": "weather", "lat": -25.465615352330495, "lon": -98.65265579511535, "alt_km": 410.755075591238, "timestamp": "2025-12-24T18:55:55.698913+00:00", "meta": {"OBJECT_NAME": "CYGFM03", "OBJECT_ID": "2016-078H", "EPOCH": "2025-12-24T05:13:56.561664", "MEAN_MOTION": 15.50374029, "ECCENTRICITY": 0.00093426, "INCLINATION": 34.9436, "RA_OF_ASC_NODE": 308.0966, "ARG_OF_PERICENTER": 299.8769, "MEAN_ANOMALY": 60.1025, "EPHEMERIS_TYPE": 0, "CLASSIFICATION_TYPE": "U", "NORAD_CAT_ID": 41891, "ELEMENT_SET_NO": 999, "REV_AT_EPOCH": 50171, "BSTAR": 0.00040581852, "MEAN_MOTION_DOT": 0.00023839, "MEAN_MOTION_DDOT": 0}, "tle": {"line1": "1 41891U 16078H   25358.21801576  .00023839  00000+0  40582-3 0  9994", "line2": "2 41891  34.9436 308.0966 0009342 299.8769  60.1025 15.50374029501718"}}, "geometry": {"type": "Point", "coordinates": [-98.65265579511535, -25.465615352330495]}}]}